STARLINK-37060          
1 68150U 26049J   26091.13186371  .00193358  00000+0  98352-3 0  9997
2 68150  97.2838 111.5226 0001402 111.0380 249.1039 15.80915499  2953
STARLINK-37073          
1 68151U 26049K   26091.16671296 -.01936698  00000+0 -13500-1 0  9991
2 68151  97.2835 111.5606 0001874  78.2516 119.4715 15.77481593  4233
STARLINK-37049          
1 68152U 26049L   26091.13036089  .00170782  00000+0  87141-3 0  9999
2 68152  97.2840 111.5250 0001368 113.0782 247.0631 15.80906006  2953
STARLINK-37072          
1 68153U 26049M   26091.16671296 -.00012004  00000+0 -79757-4 0  9997
2 68153  97.2842 111.5528 0001061  80.5192  99.4019 15.75180933  4236
STARLINK-36241          
1 68154U 26049N   26091.14698453  .00086345  00000+0  57274-3 0  9996
2 68154  97.2842 111.5014 0001905 120.4636 239.6817 15.75237056  2951
STARLINK-37048          
1 68155U 26049P   26091.18990110  .00276746  00000+0  13918-2 0  9998
2 68155  97.2840 111.5965 0001222 132.9284 227.2086 15.80947818  2966
STARLINK-36313          
1 68156U 26049Q   26091.19065299  .00196957  00000+0  10013-2 0  9999
2 68156  97.2843 111.5950 0000952  96.0457 264.0920 15.80917935  2968
STARLINK-37064          
1 68157U 26049R   26091.12885651  .00195160  00000+0  99228-3 0  9996
2 68157  97.2841 111.5262 0001050  78.1456 281.9930 15.80919798  2950
STARLINK-37069          
1 68158U 26049S   26091.14345626  .00095599  00000+0  63343-3 0  9996
2 68158  97.2840 111.5065 0001114  99.1359 261.0032 15.75234752  2953
STARLINK-37053          
1 68159U 26049T   26091.18765037  .00214018  00000+0  10859-2 0  9995
2 68159  97.2844 111.5990 0001298 133.4694 226.6683 15.80915219  2962
STARLINK-36306          
1 68160U 26049U   26091.13958273  .00186446  00000+0  12190-2 0  9991
2 68160  97.2842 111.5121 0001196 105.5658 254.5739 15.75280676  2952
STARLINK-37057          
1 68161U 26049V   26091.18915083  .00190209  00000+0  96781-3 0  9990
2 68161  97.2843 111.5971 0001247 103.8897 256.2510 15.80916767  2960
