CCSDS_OMM_VERS = 2.0
CREATION_DATE  = 
ORIGINATOR     = 

OBJECT_NAME    = STARLINK-37060
OBJECT_ID      = 2026-049J
CENTER_NAME    = EARTH
REF_FRAME      = TEME
TIME_SYSTEM    = UTC
MEAN_ELEMENT_THEORY = SGP/SGP4

EPOCH          = 2026-04-01T03:09:53.024544
MEAN_MOTION    = 15.80915499
ECCENTRICITY   = .0001402
INCLINATION    = 97.2838
RA_OF_ASC_NODE = 111.5226
ARG_OF_PERICENTER = 111.0380
MEAN_ANOMALY   = 249.1039

EPHEMERIS_TYPE = 0
CLASSIFICATION_TYPE = U
NORAD_CAT_ID   = 68150
ELEMENT_SET_NO = 999
REV_AT_EPOCH   = 295
BSTAR          = .98352E-3
MEAN_MOTION_DOT = .193358E-2
MEAN_MOTION_DDOT = 0

CCSDS_OMM_VERS = 2.0
CREATION_DATE  = 
ORIGINATOR     = 

OBJECT_NAME    = STARLINK-37073
OBJECT_ID      = 2026-049K
CENTER_NAME    = EARTH
REF_FRAME      = TEME
TIME_SYSTEM    = UTC
MEAN_ELEMENT_THEORY = SGP/SGP4

EPOCH          = 2026-04-01T04:00:03.999744
MEAN_MOTION    = 15.77481593
ECCENTRICITY   = .0001874
INCLINATION    = 97.2835
RA_OF_ASC_NODE = 111.5606
ARG_OF_PERICENTER = 78.2516
MEAN_ANOMALY   = 119.4715

EPHEMERIS_TYPE = 0
CLASSIFICATION_TYPE = U
NORAD_CAT_ID   = 68151
ELEMENT_SET_NO = 999
REV_AT_EPOCH   = 423
BSTAR          = -.135E-1
MEAN_MOTION_DOT = -.1936698E-1
MEAN_MOTION_DDOT = 0

CCSDS_OMM_VERS = 2.0
CREATION_DATE  = 
ORIGINATOR     = 

OBJECT_NAME    = STARLINK-37049
OBJECT_ID      = 2026-049L
CENTER_NAME    = EARTH
REF_FRAME      = TEME
TIME_SYSTEM    = UTC
MEAN_ELEMENT_THEORY = SGP/SGP4

EPOCH          = 2026-04-01T03:07:43.180896
MEAN_MOTION    = 15.80906006
ECCENTRICITY   = .0001368
INCLINATION    = 97.2840
RA_OF_ASC_NODE = 111.5250
ARG_OF_PERICENTER = 113.0782
MEAN_ANOMALY   = 247.0631

EPHEMERIS_TYPE = 0
CLASSIFICATION_TYPE = U
NORAD_CAT_ID   = 68152
ELEMENT_SET_NO = 999
REV_AT_EPOCH   = 295
BSTAR          = .87141E-3
MEAN_MOTION_DOT = .170782E-2
MEAN_MOTION_DDOT = 0

CCSDS_OMM_VERS = 2.0
CREATION_DATE  = 
ORIGINATOR     = 

OBJECT_NAME    = STARLINK-37072
OBJECT_ID      = 2026-049M
CENTER_NAME    = EARTH
REF_FRAME      = TEME
TIME_SYSTEM    = UTC
MEAN_ELEMENT_THEORY = SGP/SGP4

EPOCH          = 2026-04-01T04:00:03.999744
MEAN_MOTION    = 15.75180933
ECCENTRICITY   = .0001061
INCLINATION    = 97.2842
RA_OF_ASC_NODE = 111.5528
ARG_OF_PERICENTER = 80.5192
MEAN_ANOMALY   = 99.4019

EPHEMERIS_TYPE = 0
CLASSIFICATION_TYPE = U
NORAD_CAT_ID   = 68153
ELEMENT_SET_NO = 999
REV_AT_EPOCH   = 423
BSTAR          = -.79757E-4
MEAN_MOTION_DOT = -.12004E-3
MEAN_MOTION_DDOT = 0

CCSDS_OMM_VERS = 2.0
CREATION_DATE  = 
ORIGINATOR     = 

OBJECT_NAME    = STARLINK-36241
OBJECT_ID      = 2026-049N
CENTER_NAME    = EARTH
REF_FRAME      = TEME
TIME_SYSTEM    = UTC
MEAN_ELEMENT_THEORY = SGP/SGP4

EPOCH          = 2026-04-01T03:31:39.463392
MEAN_MOTION    = 15.75237056
ECCENTRICITY   = .0001905
INCLINATION    = 97.2842
RA_OF_ASC_NODE = 111.5014
ARG_OF_PERICENTER = 120.4636
MEAN_ANOMALY   = 239.6817

EPHEMERIS_TYPE = 0
CLASSIFICATION_TYPE = U
NORAD_CAT_ID   = 68154
ELEMENT_SET_NO = 999
REV_AT_EPOCH   = 295
BSTAR          = .57274E-3
MEAN_MOTION_DOT = .86345E-3
MEAN_MOTION_DDOT = 0

CCSDS_OMM_VERS = 2.0
CREATION_DATE  = 
ORIGINATOR     = 

OBJECT_NAME    = STARLINK-37048
OBJECT_ID      = 2026-049P
CENTER_NAME    = EARTH
REF_FRAME      = TEME
TIME_SYSTEM    = UTC
MEAN_ELEMENT_THEORY = SGP/SGP4

EPOCH          = 2026-04-01T04:33:27.455040
MEAN_MOTION    = 15.80947818
ECCENTRICITY   = .0001222
INCLINATION    = 97.2840
RA_OF_ASC_NODE = 111.5965
ARG_OF_PERICENTER = 132.9284
MEAN_ANOMALY   = 227.2086

EPHEMERIS_TYPE = 0
CLASSIFICATION_TYPE = U
NORAD_CAT_ID   = 68155
ELEMENT_SET_NO = 999
REV_AT_EPOCH   = 296
BSTAR          = .13918E-2
MEAN_MOTION_DOT = .276746E-2
MEAN_MOTION_DDOT = 0

CCSDS_OMM_VERS = 2.0
CREATION_DATE  = 
ORIGINATOR     = 

OBJECT_NAME    = STARLINK-36313
OBJECT_ID      = 2026-049Q
CENTER_NAME    = EARTH
REF_FRAME      = TEME
TIME_SYSTEM    = UTC
MEAN_ELEMENT_THEORY = SGP/SGP4

EPOCH          = 2026-04-01T04:34:32.418336
MEAN_MOTION    = 15.80917935
ECCENTRICITY   = .0000952
INCLINATION    = 97.2843
RA_OF_ASC_NODE = 111.5950
ARG_OF_PERICENTER = 96.0457
MEAN_ANOMALY   = 264.0920

EPHEMERIS_TYPE = 0
CLASSIFICATION_TYPE = U
NORAD_CAT_ID   = 68156
ELEMENT_SET_NO = 999
REV_AT_EPOCH   = 296
BSTAR          = .10013E-2
MEAN_MOTION_DOT = .196957E-2
MEAN_MOTION_DDOT = 0

CCSDS_OMM_VERS = 2.0
CREATION_DATE  = 
ORIGINATOR     = 

OBJECT_NAME    = STARLINK-37064
OBJECT_ID      = 2026-049R
CENTER_NAME    = EARTH
REF_FRAME      = TEME
TIME_SYSTEM    = UTC
MEAN_ELEMENT_THEORY = SGP/SGP4

EPOCH          = 2026-04-01T03:05:33.202464
MEAN_MOTION    = 15.80919798
ECCENTRICITY   = .000105
INCLINATION    = 97.2841
RA_OF_ASC_NODE = 111.5262
ARG_OF_PERICENTER = 78.1456
MEAN_ANOMALY   = 281.9930

EPHEMERIS_TYPE = 0
CLASSIFICATION_TYPE = U
NORAD_CAT_ID   = 68157
ELEMENT_SET_NO = 999
REV_AT_EPOCH   = 295
BSTAR          = .99228E-3
MEAN_MOTION_DOT = .19516E-2
MEAN_MOTION_DDOT = 0

CCSDS_OMM_VERS = 2.0
CREATION_DATE  = 
ORIGINATOR     = 

OBJECT_NAME    = STARLINK-37069
OBJECT_ID      = 2026-049S
CENTER_NAME    = EARTH
REF_FRAME      = TEME
TIME_SYSTEM    = UTC
MEAN_ELEMENT_THEORY = SGP/SGP4

EPOCH          = 2026-04-01T03:26:34.620864
MEAN_MOTION    = 15.75234752
ECCENTRICITY   = .0001114
INCLINATION    = 97.2840
RA_OF_ASC_NODE = 111.5065
ARG_OF_PERICENTER = 99.1359
MEAN_ANOMALY   = 261.0032

EPHEMERIS_TYPE = 0
CLASSIFICATION_TYPE = U
NORAD_CAT_ID   = 68158
ELEMENT_SET_NO = 999
REV_AT_EPOCH   = 295
BSTAR          = .63343E-3
MEAN_MOTION_DOT = .95599E-3
MEAN_MOTION_DDOT = 0

CCSDS_OMM_VERS = 2.0
CREATION_DATE  = 
ORIGINATOR     = 

OBJECT_NAME    = STARLINK-37053
OBJECT_ID      = 2026-049T
CENTER_NAME    = EARTH
REF_FRAME      = TEME
TIME_SYSTEM    = UTC
MEAN_ELEMENT_THEORY = SGP/SGP4

EPOCH          = 2026-04-01T04:30:12.991968
MEAN_MOTION    = 15.80915219
ECCENTRICITY   = .0001298
INCLINATION    = 97.2844
RA_OF_ASC_NODE = 111.5990
ARG_OF_PERICENTER = 133.4694
MEAN_ANOMALY   = 226.6683

EPHEMERIS_TYPE = 0
CLASSIFICATION_TYPE = U
NORAD_CAT_ID   = 68159
ELEMENT_SET_NO = 999
REV_AT_EPOCH   = 296
BSTAR          = .10859E-2
MEAN_MOTION_DOT = .214018E-2
MEAN_MOTION_DDOT = 0

CCSDS_OMM_VERS = 2.0
CREATION_DATE  = 
ORIGINATOR     = 

OBJECT_NAME    = STARLINK-36306
OBJECT_ID      = 2026-049U
CENTER_NAME    = EARTH
REF_FRAME      = TEME
TIME_SYSTEM    = UTC
MEAN_ELEMENT_THEORY = SGP/SGP4

EPOCH          = 2026-04-01T03:20:59.947872
MEAN_MOTION    = 15.75280676
ECCENTRICITY   = .0001196
INCLINATION    = 97.2842
RA_OF_ASC_NODE = 111.5121
ARG_OF_PERICENTER = 105.5658
MEAN_ANOMALY   = 254.5739

EPHEMERIS_TYPE = 0
CLASSIFICATION_TYPE = U
NORAD_CAT_ID   = 68160
ELEMENT_SET_NO = 999
REV_AT_EPOCH   = 295
BSTAR          = .1219E-2
MEAN_MOTION_DOT = .186446E-2
MEAN_MOTION_DDOT = 0

CCSDS_OMM_VERS = 2.0
CREATION_DATE  = 
ORIGINATOR     = 

OBJECT_NAME    = STARLINK-37057
OBJECT_ID      = 2026-049V
CENTER_NAME    = EARTH
REF_FRAME      = TEME
TIME_SYSTEM    = UTC
MEAN_ELEMENT_THEORY = SGP/SGP4

EPOCH          = 2026-04-01T04:32:22.631712
MEAN_MOTION    = 15.80916767
ECCENTRICITY   = .0001247
INCLINATION    = 97.2843
RA_OF_ASC_NODE = 111.5971
ARG_OF_PERICENTER = 103.8897
MEAN_ANOMALY   = 256.2510

EPHEMERIS_TYPE = 0
CLASSIFICATION_TYPE = U
NORAD_CAT_ID   = 68161
ELEMENT_SET_NO = 999
REV_AT_EPOCH   = 296
BSTAR          = .96781E-3
MEAN_MOTION_DOT = .190209E-2
MEAN_MOTION_DDOT = 0

